STARLINK-1829
1 26726C 20073BJ  21325.15399757  .00003714  00000-0  24865-3 0  3252
2 26726  53.0558  87.5394 0007249  27.4767 266.9061 15.06403791    11
